NORAD_CAT_ID,OBJECT_NAME,OBJECT_TYPE,EPOCH,MEAN_MOTION,ECCENTRICITY,INCLINATION,RA_OF_ASC_NODE,ARG_OF_PERICENTER,MEAN_ANOMALY,BSTAR,MEAN_MOTION_DOT,MEAN_MOTION_DDOT,TLE_LINE0,TLE_LINE1,TLE_LINE2,SEMIMAJOR_AXIS,PERIOD,APOGEE,PERIGEE,DECAYED
49164.0,STARLINK-3106,PAYLOAD,2023-11-21 20:47:33,14.98328443,0.0002267,70.0006,229.4316,259.7245,100.3659,-5.5595e-06,-1.59e-06,0.0,0 STARLINK-3106,1 49164U 21082AL  23325.86635973 -.00000159  00000-0 -55595-5 0  9990,2 49164  70.0006 229.4316 0002267 259.7245 100.3659 14.98328443121999,6950.198,96.107,573.638,570.487,0.0
49164.0,STARLINK-3106,PAYLOAD,2023-11-22 03:12:05,14.98331734,0.0002314,69.9998,228.7573,266.4188,93.6707,1.4143e-05,7.6e-07,0.0,0 STARLINK-3106,1 49164U 21082AL  23326.13339779  .00000076  00000-0  14143-4 0  9995,2 49164  69.9998 228.7573 0002314 266.4188  93.6707 14.98331734122038,6950.188,96.107,573.661,570.444,0.0
49164.0,STARLINK-3106,PAYLOAD,2023-11-22 19:13:26,14.98329654,0.0002353,69.9996,227.0744,267.7332,92.3558,3.1925e-05,2.88e-06,0.0,0 STARLINK-3106,1 49164U 21082AL  23326.80099854  .00000288  00000-0  31925-4 0  9998,2 49164  69.9996 227.0744 0002353 267.7332  92.3558 14.98329654122135,6950.194,96.107,573.694,570.424,0.0
49164.0,STARLINK-3106,PAYLOAD,2023-11-22 20:49:34,14.98330281,0.0002356,69.9997,226.9058,267.9563,92.1326,4.5521e-05,4.5e-06,0.0,0 STARLINK-3106,1 49164U 21082AL  23326.86775823  .00000450  00000-0  45521-4 0  9999,2 49164  69.9997 226.9058 0002356 267.9563  92.1326 14.98330281122143,6950.192,96.107,573.694,570.42,0.0
49164.0,STARLINK-3106,PAYLOAD,2023-11-23 03:14:06,14.98332806,0.0002055,70.0009,226.2346,241.0067,119.0886,6.2089e-05,6.48e-06,0.0,0 STARLINK-3106,1 49164U 21082AL  23327.13479554  .00000648  00000-0  62089-4 0  9999,2 49164  70.0009 226.2346 0002055 241.0067 119.0886 14.98332806122180,6950.184,96.107,573.477,570.621,0.0
49164.0,STARLINK-3106,PAYLOAD,2023-11-23 19:15:27,14.98328415,0.0001867,70.001,224.5504,232.1521,127.9469,0.00010985,1.218e-05,0.0,0 STARLINK-3106,1 49164U 21082AL  23327.80239726  .00001218  00000-0  10985-3 0  9999,2 49164  70.0010 224.5504 0001867 232.1521 127.9469 14.98328415122282,6950.198,96.107,573.36,570.765,0.0
49164.0,STARLINK-3106,PAYLOAD,2023-11-23 22:27:43,14.98327437,0.0002002,70.0009,224.2135,252.7951,107.2989,0.00010711,1.185e-05,0.0,0 STARLINK-3106,1 49164U 21082AL  23327.93591850  .00001185  00000-0  10711-3 0  9992,2 49164  70.0009 224.2135 0002002 252.7951 107.2989 14.98327437122308,6950.201,96.107,573.457,570.674,0.0
49164.0,STARLINK-3106,PAYLOAD,2023-11-24 03:16:07,14.98327469,0.0001941,70.0009,223.7097,249.3313,110.7638,0.00010156,1.119e-05,0.0,0 STARLINK-3106,1 49164U 21082AL  23328.13619905  .00001119  00000-0  10156-3 0  9997,2 49164  70.0009 223.7097 0001941 249.3313 110.7638 14.98327469122332,6950.201,96.107,573.415,570.717,0.0
49164.0,STARLINK-3106,PAYLOAD,2023-11-24 19:17:28,14.98352431,0.0001751,70.0005,222.026,238.6532,121.4456,-0.00035266,-4.3e-05,0.0,0 STARLINK-3106,1 49164U 21082AL  23328.80379663 -.00004300  00000-0 -35266-3 0  9991,2 49164  70.0005 222.0260 0001751 238.6532 121.4456 14.98352431122430,6950.124,96.106,573.205,570.772,0.0
49164.0,STARLINK-3106,PAYLOAD,2023-11-24 22:29:44,14.9833365,0.0001955,70.0004,221.6909,230.5325,129.5661,-8.1384e-05,-1.064e-05,0.0,0 STARLINK-3106,1 49164U 21082AL  23328.93732135 -.00001064  00000-0 -81384-4 0  9999,2 49164  70.0004 221.6909 0001955 230.5325 129.5661 14.98333650122452,6950.182,96.107,573.405,570.688,0.0
49164.0,STARLINK-3106,PAYLOAD,2023-11-25 03:18:08,14.98330651,0.0002256,69.9999,221.1835,254.6947,105.3963,4.5819e-05,4.54e-06,0.0,0 STARLINK-3106,1 49164U 21082AL  23329.13760009  .00000454  00000-0  45819-4 0  9996,2 49164  69.9999 221.1835 0002256 254.6947 105.3963 14.98330651122485,6950.191,96.107,573.624,570.488,0.0
49164.0,STARLINK-3106,PAYLOAD,2023-11-25 22:31:43,14.98401282,0.0002864,69.9997,219.1632,266.5196,93.5636,-0.00093568,-0.0001126,0.0,0 STARLINK-3106,1 49164U 21082AL  23329.93869311 -.00011260  00000-0 -93568-3 0  9992,2 49164  69.9997 219.1632 0002864 266.5196  93.5636 14.98401282122606,6949.972,96.102,573.828,569.847,0.0
49164.0,STARLINK-3106,PAYLOAD,2023-11-26 03:20:07,14.98348215,0.0001881,70.001,218.6591,246.2677,113.8285,0.0002749,3.19e-05,0.0,0 STARLINK-3106,1 49164U 21082AL  23330.13898115  .00003190  00000-0  27490-3 0  9992,2 49164  70.0010 218.6591 0001881 246.2677 113.8285 14.98348215122635,6950.137,96.106,573.309,570.694,0.0
49164.0,STARLINK-3106,PAYLOAD,2023-11-26 19:21:30,14.98317272,0.0002666,69.9995,216.9756,274.6657,85.4198,-4.9387e-05,-6.82e-06,0.0,0 STARLINK-3106,1 49164U 21082AL  23330.80660780 -.00000682  00000-0 -49387-4 0  9996,2 49164  69.9995 216.9756 0002666 274.6657  85.4198 14.98317272122730,6950.232,96.108,573.95,570.244,0.0
49164.0,STARLINK-3106,PAYLOAD,2023-11-26 22:33:47,14.98313876,0.000227,69.9995,216.6381,262.0337,98.0565,-6.5013e-05,-8.68e-06,0.0,0 STARLINK-3106,1 49164U 21082AL  23330.94013024 -.00000868  00000-0 -65013-4 0  9994,2 49164  69.9995 216.6381 0002270 262.0337  98.0565 14.98313876122754,6950.243,96.108,573.685,570.53,0.0
49164.0,STARLINK-3106,PAYLOAD,2023-11-27 01:46:03,14.98317029,0.0002265,69.9999,216.3022,264.7858,95.3042,-3.3355e-05,-4.91e-06,0.0,0 STARLINK-3106,1 49164U 21082AL  23331.07364928 -.00000491  00000-0 -33355-4 0  9997,2 49164  69.9999 216.3022 0002265 264.7858  95.3042 14.98317029122774,6950.233,96.108,573.672,570.524,0.0
49164.0,STARLINK-3106,PAYLOAD,2023-11-27 19:23:31,14.98334787,0.0001937,70.0012,214.4527,248.092,112.0034,-8.1834e-06,-1.9e-06,0.0,0 STARLINK-3106,1 49164U 21082AL  23331.80799845 -.00000190  00000-0 -81834-5 0  9990,2 49164  70.0012 214.4527 0001937 248.0920 112.0034 14.98334787122882,6950.178,96.107,573.389,570.697,0.0
49164.0,STARLINK-3106,PAYLOAD,2023-11-27 22:35:46,14.98337713,0.0001881,70.0009,214.1147,228.5179,131.5818,1.912e-05,1.35e-06,0.0,0 STARLINK-3106,1 49164U 21082AL  23331.94151493  .00000135  00000-0  19120-4 0  9991,2 49164  70.0009 214.1147 0001881 228.5179 131.5818 14.98337713122901,6950.169,96.107,573.341,570.727,0.0
49164.0,STARLINK-3106,PAYLOAD,2023-11-28 01:48:02,14.98343381,0.0002168,69.9996,213.7774,260.1259,99.9656,4.7899e-05,4.79e-06,0.0,0 STARLINK-3106,1 49164U 21082AL  23332.07503035  .00000479  00000-0  47899-4 0  9994,2 49164  69.9996 213.7774 0002168 260.1259  99.9656 14.98343381122921,6950.152,96.106,573.523,570.51,0.0
49164.0,STARLINK-3106,PAYLOAD,2023-11-28 19:25:31,14.98325017,0.0002181,70.0009,211.9268,258.1917,101.8998,0.00031549,3.673e-05,0.0,0 STARLINK-3106,1 49164U 21082AL  23332.80939694  .00003673  00000-0  31549-3 0  9992,2 49164  70.0009 211.9268 0002181 258.1917 101.8998 14.98325017123031,6950.208,96.107,573.589,570.557,0.0
49164.0,STARLINK-3106,PAYLOAD,2023-11-28 22:37:45,14.98370336,0.000165,70.0014,211.592,256.3896,103.708,0.00060365,7.124e-05,0.0,0 STARLINK-3106,1 49164U 21082AL  23332.94288561  .00007124  00000-0  60365-3 0  9990,2 49164  70.0014 211.5920 0001650 256.3896 103.7080 14.98370336123053,6950.068,96.104,573.08,570.786,0.0
49164.0,STARLINK-3106,PAYLOAD,2023-11-29 01:50:02,14.98363899,0.0002136,70.0001,211.2531,278.0701,82.0215,0.00029165,3.392e-05,0.0,0 STARLINK-3106,1 49164U 21082AL  23333.07641326  .00003392  00000-0  29165-3 0  9993,2 49164  70.0001 211.2531 0002136 278.0701  82.0215 14.98363899123077,6950.088,96.105,573.438,570.469,0.0
49164.0,STARLINK-3106,PAYLOAD,2023-11-29 19:27:33,14.98332829,0.000209,70.0013,209.4024,264.9005,95.1915,6.0286e-05,6.27e-06,0.0,0 STARLINK-3106,1 49164U 21082AL  23333.81079892  .00000627  00000-0  60286-4 0  9996,2 49164  70.0013 209.4024 0002090 264.9005  95.1915 14.98332829123189,6950.184,96.107,573.502,570.597,0.0
49164.0,STARLINK-3106,PAYLOAD,2023-11-30 19:29:34,14.98327952,0.0002574,70.0003,206.8751,272.2391,87.8473,1.5224e-05,8.9e-07,0.0,0 STARLINK-3106,1 49164U 21082AL  23334.81220166  .00000089  00000-0  15224-4 0  9993,2 49164  70.0003 206.8751 0002574 272.2391  87.8473 14.98327952123338,6950.199,96.107,573.853,570.275,0.0
49164.0,STARLINK-3106,PAYLOAD,2023-12-01 19:31:34,14.98334584,0.0002462,69.9995,204.3489,277.5313,82.5566,0.00017499,1.996e-05,0.0,0 STARLINK-3106,1 49164U 21082AL  23335.81359329  .00001996  00000-0  17499-3 0  9991,2 49164  69.9995 204.3489 0002462 277.5313  82.5566 14.98334584123484,6950.179,96.107,573.755,570.333,0.0
49164.0,STARLINK-3106,PAYLOAD,2023-12-01 22:43:50,14.98339805,0.0002122,70.0002,204.0148,248.3692,111.7241,0.00022,2.534e-05,0.0,0 STARLINK-3106,1 49164U 21082AL  23335.94710862  .00002534  00000-0  22000-3 0  9991,2 49164  70.0002 204.0148 0002122 248.3692 111.7241 14.98339805123503,6950.163,96.106,573.502,570.553,0.0
49164.0,STARLINK-3106,PAYLOAD,2023-12-02 00:19:58,14.98340452,0.0001987,70.0007,203.8465,245.2978,114.7974,0.00022424,2.584e-05,0.0,0 STARLINK-3106,1 49164U 21082AL  23336.01386780  .00002584  00000-0  22424-3 0  9993,2 49164  70.0007 203.8465 0001987 245.2978 114.7974 14.98340452123515,6950.161,96.106,573.407,570.645,0.0
49164.0,STARLINK-3106,PAYLOAD,2023-12-02 01:56:05,14.98347013,0.0001847,70.0006,203.6776,267.9684,92.1264,0.0003157,3.677e-05,0.0,0 STARLINK-3106,1 49164U 21082AL  23336.08062373  .00003677  00000-0  31570-3 0  9995,2 49164  70.0006 203.6776 0001847 267.9684  92.1264 14.98347013123529,6950.14,96.106,573.289,570.722,0.0
49164.0,STARLINK-3106,PAYLOAD,2023-12-02 17:57:27,14.98328122,0.0002525,69.9997,201.9949,258.0555,102.0321,0.00010269,1.132e-05,0.0,0 STARLINK-3106,1 49164U 21082AL  23336.74823517  .00001132  00000-0  10269-3 0  9999,2 49164  69.9997 201.9949 0002525 258.0555 102.0321 14.98328122123626,6950.199,96.107,573.819,570.309,0.0
49164.0,STARLINK-3106,PAYLOAD,2023-12-02 22:45:51,14.9832661,0.000227,70.0004,201.491,255.8226,104.2681,8.8901e-05,9.68e-06,0.0,0 STARLINK-3106,1 49164U 21082AL  23336.94851658  .00000968  00000-0  88901-4 0  9993,2 49164  70.0004 201.4910 0002270 255.8226 104.2681 14.98326610123654,6950.203,96.107,573.646,570.491,0.0
